SIRION PATHFINDER-2     
1 43759U 18099B   26166.66218061  .00003885  00000+0  21421-3 0  9992
2 43759  97.4253 215.7559 0007275 311.6341  48.4267 15.14537445412393
CORVUS BC4              
1 43767U 18099K   26166.93131546  .00004194  00000+0  24447-3 0  9998
2 43767  97.4064 209.9482 0008354  17.0793 343.0717 15.12487398412213
M2 PATHFINDER           
1 45727U 20037E   26166.98284775  .00001662  00000+0  12259-3 0  9994
2 45727  97.8148 358.2013 0012432 149.6775 210.5173 15.04672820325315
NETSAT-4                
1 46504U 20068U   26167.28220934  .00014457  00000+0  32080-3 0  9993
2 46504  97.8598 175.4502 0003955 342.0858  18.0248 15.43839048315639
NETSAT-3                
1 46505U 20068V   26167.28779030  .00015542  00000+0  35861-3 0  9996
2 46505  97.8647 173.6737 0004330   5.2493 354.8797 15.42651495315543
NETSAT-1                
1 46506U 20068W   26166.96175425  .00010438  00000+0  31359-3 0  9996
2 46506  97.8738 167.6674 0005177  36.2588 323.9003 15.34618921315115
NETSAT-2                
1 46507U 20068X   26166.99987978  .00020165  00000+0  41545-3 0  9990
2 46507  97.8608 175.0355 0003598  30.6879 329.4578 15.45954371315557
GREENCUBE (IO-117)      
1 53109U 22080E   26164.29338770 -.00000003  00000+0  00000+0 0  9990
2 53109  70.1444 299.5995 0008910 290.4576  69.5127  6.42583230 91811
SITRO-AIS 5 (KATYS)     
1 57176U 23091L   26167.28488486  .00010107  00000+0  35584-3 0  9997
2 57176  97.5063 231.1755 0012768 106.2216 254.0430 15.29440182164201
SITRO-AIS 6 (CHIRKIN)   
1 57192U 23091AC  26167.26175166  .00008865  00000+0  34758-3 0  9991
2 57192  97.5069 230.2763 0013097 109.3115 250.9541 15.25920702164140
SITRO-AIS 8 (ANOKHIN)   
1 57193U 23091AD  26167.30348728  .00011602  00000+0  37579-3 0  9990
2 57193  97.5058 232.7794 0011801 102.6444 257.6118 15.32116048164313
SITRO-AIS 7 (FARTUSHNIY)
1 57194U 23091AE  26167.19912207  .00008253  00000+0  32685-3 0  9998
2 57194  97.5067 230.0387 0012944 110.3686 249.8944 15.25607216164129
SITRO-AIS 10 (BURDAEV)  
1 57199U 23091AK  26167.27371268  .00017245  00000+0  45404-3 0  9992
2 57199  97.5084 237.7938 0007577  83.0927 277.1180 15.38583885164629
SITRO-AIS 9 (SHCHUKIN)  
1 57201U 23091AM  26167.29982125  .00016171  00000+0  43275-3 0  9999
2 57201  97.5082 237.5512 0007823  83.1288 277.0846 15.38093393164619
SITRO-AIS 12 (SMIRENNIY)
1 57204U 23091AQ  26167.29061183  .00016853  00000+0  44665-3 0  9995
2 57204  97.5095 238.0084 0007360  78.2651 281.9419 15.38386481164636
SITRO-AIS 11 (SHEFFER)  
1 57208U 23091AU  26167.30427331  .00016300  00000+0  42622-3 0  9990
2 57208  97.5093 238.2685 0007239  78.0430 282.1626 15.38810587164659
SITRO-AIS 25            
1 59066U 24039R   26167.30418907  .00002153  00000+0  16979-3 0  9993
2 59066  95.3908 234.4857 0143588 331.8675  27.4844 14.93509645124593
SITRO-AIS 26            
1 59067U 24039S   26167.30544142  .00002162  00000+0  17123-3 0  9997
2 59067  95.3909 234.3844 0143932 332.4476  26.9170 14.93305675124581
SITRO-AIS 27            
1 59068U 24039T   26167.27593618  .00002545  00000+0  19938-3 0  9997
2 59068  95.3915 234.6353 0142866 331.2021  28.1370 14.93727559124603
SITRO-AIS 28            
1 59071U 24039U   26167.25340006  .00002659  00000+0  20803-3 0  9999
2 59071  95.3912 234.6671 0142796 331.0762  28.2602 14.93759129124606
GRBBETA                 
1 60237U 24128C   26167.29088496  .00002722  00000+0  19395-3 0  9995
2 60237  61.9886 219.4111 0040768 134.4896 225.9542 15.06634918106130
OOV-CUBE (TUBSAT-30)    
1 60240U 24128F   26167.32354354  .00001579  00000+0  13083-3 0  9999
2 60240  61.9943 228.5853 0044694 133.5156 226.9663 15.02771261105989
ROBUSTA-3A (MEDITERRAN*)
1 60243U 24128J   26167.27493770  .00004469  00000+0  26919-3 0  9995
2 60243  61.9850 211.4709 0041457 127.8615 232.6243 15.11669085106282
LASARSAT                
1 62391U 24247Q   26167.00723506  .00026291  00000+0  52618-3 0  9999
2 62391  44.9746 268.8456 0008258 324.3459  35.6879 15.46313452 83136
CROCUBE                 
1 62394U 24247T   26165.58698051  .00034757  00000+0  65094-3 0  9997
2 62394  44.9722 274.1999 0008187 320.7516  39.2780 15.48102542 82947
FORESAIL-1 PRIME        
1 66778U 25276DS  26167.00824586  .00004523  00000+0  22130-3 0  9995
2 66778  97.4205 240.3003 0003893 107.9199 252.2460 15.18693531 30224
KNACKSAT-2              
1 67683U 98067XZ  26167.06925753  .00039932  00000+0  48947-3 0  9999
2 67683  51.6312 300.0997 0009231 210.2496 149.7965 15.59891318 20101
